CCSDS_OMM_VERS = 2.0
CREATION_DATE  = 
ORIGINATOR     = 

OBJECT_NAME    = ATLAS CENTAUR R/B
OBJECT_ID      = 1972-065B
CENTER_NAME    = EARTH
REF_FRAME      = TEME
TIME_SYSTEM    = UTC
MEAN_ELEMENT_THEORY = SGP/SGP4

EPOCH          = 2025-12-06T20:20:51.515808
MEAN_MOTION    = 14.77383689
ECCENTRICITY   = .00345093
INCLINATION    = 35.0000
RA_OF_ASC_NODE = 129.7103
ARG_OF_PERICENTER = 308.5647
MEAN_ANOMALY   = 51.1964

EPHEMERIS_TYPE = 0
CLASSIFICATION_TYPE = U
NORAD_CAT_ID   = 6155
ELEMENT_SET_NO = 999
REV_AT_EPOCH   = 82752
BSTAR          = .3444799E-3
MEAN_MOTION_DOT = .2492E-4
MEAN_MOTION_DDOT = 0

CCSDS_OMM_VERS = 2.0
CREATION_DATE  = 
ORIGINATOR     = 

OBJECT_NAME    = SL-8 R/B
OBJECT_ID      = 1975-112B
CENTER_NAME    = EARTH
REF_FRAME      = TEME
TIME_SYSTEM    = UTC
MEAN_ELEMENT_THEORY = SGP/SGP4

EPOCH          = 2025-12-06T22:01:36.285312
MEAN_MOTION    = 14.38139468
ECCENTRICITY   = .00165091
INCLINATION    = 74.0596
RA_OF_ASC_NODE = 189.5668
ARG_OF_PERICENTER = 301.5562
MEAN_ANOMALY   = 58.3980

EPHEMERIS_TYPE = 0
CLASSIFICATION_TYPE = U
NORAD_CAT_ID   = 8459
ELEMENT_SET_NO = 999
REV_AT_EPOCH   = 61853
BSTAR          = .1730783E-3
MEAN_MOTION_DOT = .499E-5
MEAN_MOTION_DDOT = 0

CCSDS_OMM_VERS = 2.0
CREATION_DATE  = 
ORIGINATOR     = 

OBJECT_NAME    = SL-3 R/B
OBJECT_ID      = 1977-057B
CENTER_NAME    = EARTH
REF_FRAME      = TEME
TIME_SYSTEM    = UTC
MEAN_ELEMENT_THEORY = SGP/SGP4

EPOCH          = 2025-12-06T22:03:10.128672
MEAN_MOTION    = 15.42740918
ECCENTRICITY   = .00064063
INCLINATION    = 97.5682
RA_OF_ASC_NODE = 144.0213
ARG_OF_PERICENTER = 257.2331
MEAN_ANOMALY   = 102.8200

EPHEMERIS_TYPE = 0
CLASSIFICATION_TYPE = U
NORAD_CAT_ID   = 10114
ELEMENT_SET_NO = 999
REV_AT_EPOCH   = 65401
BSTAR          = .40586044E-3
MEAN_MOTION_DOT = .17672E-3
MEAN_MOTION_DDOT = 0

CCSDS_OMM_VERS = 2.0
CREATION_DATE  = 
ORIGINATOR     = 

OBJECT_NAME    = SEASAT 1
OBJECT_ID      = 1978-064A
CENTER_NAME    = EARTH
REF_FRAME      = TEME
TIME_SYSTEM    = UTC
MEAN_ELEMENT_THEORY = SGP/SGP4

EPOCH          = 2025-12-06T20:54:49.601952
MEAN_MOTION    = 14.46051786
ECCENTRICITY   = .00017945
INCLINATION    = 108.0105
RA_OF_ASC_NODE = 290.7226
ARG_OF_PERICENTER = 249.8537
MEAN_ANOMALY   = 110.2415

EPHEMERIS_TYPE = 0
CLASSIFICATION_TYPE = U
NORAD_CAT_ID   = 10967
ELEMENT_SET_NO = 999
REV_AT_EPOCH   = 49309
BSTAR          = .29709072E-3
MEAN_MOTION_DOT = .924E-5
MEAN_MOTION_DDOT = 0

CCSDS_OMM_VERS = 2.0
CREATION_DATE  = 
ORIGINATOR     = 

OBJECT_NAME    = SL-14 R/B
OBJECT_ID      = 1979-011B
CENTER_NAME    = EARTH
REF_FRAME      = TEME
TIME_SYSTEM    = UTC
MEAN_ELEMENT_THEORY = SGP/SGP4

EPOCH          = 2025-12-06T22:51:27.446400
MEAN_MOTION    = 14.91759206
ECCENTRICITY   = .00164347
INCLINATION    = 82.5240
RA_OF_ASC_NODE = 184.5330
ARG_OF_PERICENTER = 12.6320
MEAN_ANOMALY   = 347.5308

EPHEMERIS_TYPE = 0
CLASSIFICATION_TYPE = U
NORAD_CAT_ID   = 11267
ELEMENT_SET_NO = 999
REV_AT_EPOCH   = 51495
BSTAR          = .9987391E-4
MEAN_MOTION_DOT = .1033E-4
MEAN_MOTION_DDOT = 0

CCSDS_OMM_VERS = 2.0
CREATION_DATE  = 
ORIGINATOR     = 

OBJECT_NAME    = SL-8 R/B
OBJECT_ID      = 1979-089B
CENTER_NAME    = EARTH
REF_FRAME      = TEME
TIME_SYSTEM    = UTC
MEAN_ELEMENT_THEORY = SGP/SGP4

EPOCH          = 2025-12-06T22:34:15.145248
MEAN_MOTION    = 14.42277452
ECCENTRICITY   = .00144281
INCLINATION    = 74.0693
RA_OF_ASC_NODE = 262.7120
ARG_OF_PERICENTER = 99.6403
MEAN_ANOMALY   = 260.6384

EPHEMERIS_TYPE = 0
CLASSIFICATION_TYPE = U
NORAD_CAT_ID   = 11574
ELEMENT_SET_NO = 999
REV_AT_EPOCH   = 42273
BSTAR          = .18599502E-3
MEAN_MOTION_DOT = .588E-5
MEAN_MOTION_DDOT = 0

CCSDS_OMM_VERS = 2.0
CREATION_DATE  = 
ORIGINATOR     = 

OBJECT_NAME    = SL-14 R/B
OBJECT_ID      = 1980-005B
CENTER_NAME    = EARTH
REF_FRAME      = TEME
TIME_SYSTEM    = UTC
MEAN_ELEMENT_THEORY = SGP/SGP4

EPOCH          = 2025-12-06T21:42:35.479584
MEAN_MOTION    = 14.90781341
ECCENTRICITY   = .00172275
INCLINATION    = 82.5154
RA_OF_ASC_NODE = 35.2332
ARG_OF_PERICENTER = 111.1964
MEAN_ANOMALY   = 249.1098

EPHEMERIS_TYPE = 0
CLASSIFICATION_TYPE = U
NORAD_CAT_ID   = 11672
ELEMENT_SET_NO = 999
REV_AT_EPOCH   = 46266
BSTAR          = .10392116E-3
MEAN_MOTION_DOT = .1049E-4
MEAN_MOTION_DDOT = 0

CCSDS_OMM_VERS = 2.0
CREATION_DATE  = 
ORIGINATOR     = 

OBJECT_NAME    = SL-8 R/B
OBJECT_ID      = 1981-003B
CENTER_NAME    = EARTH
REF_FRAME      = TEME
TIME_SYSTEM    = UTC
MEAN_ELEMENT_THEORY = SGP/SGP4

EPOCH          = 2025-12-06T21:27:25.667712
MEAN_MOTION    = 15.06787889
ECCENTRICITY   = .02804308
INCLINATION    = 82.9281
RA_OF_ASC_NODE = 15.5835
ARG_OF_PERICENTER = 140.3612
MEAN_ANOMALY   = 221.8496

EPHEMERIS_TYPE = 0
CLASSIFICATION_TYPE = U
NORAD_CAT_ID   = 12139
ELEMENT_SET_NO = 999
REV_AT_EPOCH   = 30068
BSTAR          = .58976414E-3
MEAN_MOTION_DOT = .22165E-3
MEAN_MOTION_DDOT = 0

CCSDS_OMM_VERS = 2.0
CREATION_DATE  = 
ORIGINATOR     = 

OBJECT_NAME    = SL-3 R/B
OBJECT_ID      = 1981-046B
CENTER_NAME    = EARTH
REF_FRAME      = TEME
TIME_SYSTEM    = UTC
MEAN_ELEMENT_THEORY = SGP/SGP4

EPOCH          = 2025-12-06T21:50:02.234112
MEAN_MOTION    = 15.39432395
ECCENTRICITY   = .00192751
INCLINATION    = 81.2334
RA_OF_ASC_NODE = 40.9115
ARG_OF_PERICENTER = 344.9871
MEAN_ANOMALY   = 15.0795

EPHEMERIS_TYPE = 0
CLASSIFICATION_TYPE = U
NORAD_CAT_ID   = 12465
ELEMENT_SET_NO = 999
REV_AT_EPOCH   = 42414
BSTAR          = .4092492E-3
MEAN_MOTION_DOT = .1617E-3
MEAN_MOTION_DDOT = 0

CCSDS_OMM_VERS = 2.0
CREATION_DATE  = 
ORIGINATOR     = 

OBJECT_NAME    = SL-3 R/B
OBJECT_ID      = 1981-103B
CENTER_NAME    = EARTH
REF_FRAME      = TEME
TIME_SYSTEM    = UTC
MEAN_ELEMENT_THEORY = SGP/SGP4

EPOCH          = 2025-12-06T22:24:13.987872
MEAN_MOTION    = 15.20127172
ECCENTRICITY   = .0011377
INCLINATION    = 81.1588
RA_OF_ASC_NODE = 322.1532
ARG_OF_PERICENTER = 235.7373
MEAN_ANOMALY   = 124.2781

EPHEMERIS_TYPE = 0
CLASSIFICATION_TYPE = U
NORAD_CAT_ID   = 12904
ELEMENT_SET_NO = 999
REV_AT_EPOCH   = 95913
BSTAR          = .42233347E-3
MEAN_MOTION_DOT = .917E-4
MEAN_MOTION_DDOT = 0

CCSDS_OMM_VERS = 2.0
CREATION_DATE  = 
ORIGINATOR     = 

OBJECT_NAME    = SL-3 R/B
OBJECT_ID      = 1982-013B
CENTER_NAME    = EARTH
REF_FRAME      = TEME
TIME_SYSTEM    = UTC
MEAN_ELEMENT_THEORY = SGP/SGP4

EPOCH          = 2025-12-06T22:04:59.090304
MEAN_MOTION    = 15.21004662
ECCENTRICITY   = .0023769
INCLINATION    = 81.1755
RA_OF_ASC_NODE = 269.4202
ARG_OF_PERICENTER = 129.4327
MEAN_ANOMALY   = 230.9014

EPHEMERIS_TYPE = 0
CLASSIFICATION_TYPE = U
NORAD_CAT_ID   = 13068
ELEMENT_SET_NO = 999
REV_AT_EPOCH   = 39024
BSTAR          = .30348002E-3
MEAN_MOTION_DOT = .6807E-4
MEAN_MOTION_DDOT = 0

CCSDS_OMM_VERS = 2.0
CREATION_DATE  = 
ORIGINATOR     = 

OBJECT_NAME    = SL-3 R/B
OBJECT_ID      = 1982-039B
CENTER_NAME    = EARTH
REF_FRAME      = TEME
TIME_SYSTEM    = UTC
MEAN_ELEMENT_THEORY = SGP/SGP4

EPOCH          = 2025-12-06T22:31:32.131776
MEAN_MOTION    = 15.09472793
ECCENTRICITY   = .00300448
INCLINATION    = 81.1728
RA_OF_ASC_NODE = 322.7700
ARG_OF_PERICENTER = 272.0237
MEAN_ANOMALY   = 87.7547

EPHEMERIS_TYPE = 0
CLASSIFICATION_TYPE = U
NORAD_CAT_ID   = 13154
ELEMENT_SET_NO = 999
REV_AT_EPOCH   = 36764
BSTAR          = .31776217E-3
MEAN_MOTION_DOT = .5164E-4
MEAN_MOTION_DDOT = 0

