ATLAS CENTAUR R/B       
1 06155U 72065B   25340.84781847  .00002492  00000+0  34448-3 0  9990
2 06155  35.0000 129.7103 0034509 308.5647  51.1964 14.77383689827520
SL-8 R/B                
1 08459U 75112B   25340.91778108  .00000499  00000+0  17308-3 0  9990
2 08459  74.0596 189.5668 0016509 301.5562  58.3980 14.38139468618538
SL-3 R/B                
1 10114U 77057B   25340.91886723  .00017672  00000+0  40586-3 0  9999
2 10114  97.5682 144.0213 0006406 257.2331 102.8200 15.42740918654010
SEASAT 1                
1 10967U 78064A   25340.87140743  .00000924  00000+0  29709-3 0  9990
2 10967 108.0105 290.7226 0001794 249.8537 110.2415 14.46051786493098
SL-14 R/B               
1 11267U 79011B   25340.95240100  .00001033  00000+0  99874-4 0  9997
2 11267  82.5240 184.5330 0016434  12.6320 347.5308 14.91759206514954
SL-8 R/B                
1 11574U 79089B   25340.94045307  .00000588  00000+0  18600-3 0  9995
2 11574  74.0693 262.7120 0014428  99.6403 260.6384 14.42277452422734
SL-14 R/B               
1 11672U 80005B   25340.90457731  .00001049  00000+0  10392-3 0  9991
2 11672  82.5154  35.2332 0017227 111.1964 249.1098 14.90781341462669
SL-8 R/B                
1 12139U 81003B   25340.89404708  .00022165  00000+0  58976-3 0  9995
2 12139  82.9281  15.5835 0280430 140.3612 221.8496 15.06787889300687
SL-3 R/B                
1 12465U 81046B   25340.90974808  .00016170  00000+0  40925-3 0  9993
2 12465  81.2334  40.9115 0019275 344.9871  15.0795 15.39432395424147
SL-3 R/B                
1 12904U 81103B   25340.93349523  .00009170  00000+0  42233-3 0  9994
2 12904  81.1588 322.1532 0011377 235.7373 124.2781 15.20127172959136
SL-3 R/B                
1 13068U 82013B   25340.92012836  .00006807  00000+0  30348-3 0  9998
2 13068  81.1755 269.4202 0023769 129.4327 230.9014 15.21004662390241
SL-3 R/B                
1 13154U 82039B   25340.93856634  .00005164  00000+0  31776-3 0  9996
2 13154  81.1728 322.7700 0030044 272.0237  87.7547 15.09472793367649
